{
  "type": "FeatureCollection",
  "features": [
    {
      "type": "Feature",
      "properties": {
        "norad_id": 29268,
        "name": "ARIRANG-2 (KOMPSAT-2)",
        "group": "resource",
        "lat": -81.84322305897669,
        "lon": -112.35753030352566,
        "alt_km": 678.8592322958011,
        "timestamp": "2025-12-11T10:53:15.541341+00:00",
        "meta_object_name": "ARIRANG-2 (KOMPSAT-2)",
        "meta_object_id": "2006-031A",
        "meta_epoch": "2025-12-11T05:00:12.870720",
        "meta_mean_motion": 14.64490807,
        "meta_eccentricity": 0.0013615,
        "meta_inclination": 97.8261,
        "meta_ra_of_asc_node": 173.7559,
        "meta_arg_of_pericenter": 314.514,
        "meta_mean_anomaly": 106.0845,
        "meta_ephemeris_type": 0,
        "meta_classification_type": "U",
        "meta_norad_cat_id": 29268,
        "meta_element_set_no": 999,
        "meta_rev_at_epoch": 3396,
        "meta_bstar": 0.00010136,
        "meta_mean_motion_dot": 4.92e-06,
        "meta_mean_motion_ddot": 0,
        "tle_line1": "1 29268U 06031A   25345.20848230  .00000492  00000+0  10136-3 0  9991",
        "tle_line2": "2 29268  97.8261 173.7559 0013615 314.5140 106.0845 14.64490807 33961"
      },
      "geometry": {
        "type": "Point",
        "coordinates": [
          -112.35753030352566,
          -81.84322305897669
        ]
      }
    },
    {
      "type": "Feature",
      "properties": {
        "norad_id": 29709,
        "name": "LAPAN-TUBSAT",
        "group": "resource",
        "lat": 69.24527852582382,
        "lon": 177.73323789191352,
        "alt_km": 596.5955192403608,
        "timestamp": "2025-12-11T10:53:15.541353+00:00",
        "meta_object_name": "LAPAN-TUBSAT",
        "meta_object_id": "2007-001A",
        "meta_epoch": "2025-12-11T05:33:00.061344",
        "meta_mean_motion": 14.85666361,
        "meta_eccentricity": 0.0013695,
        "meta_inclination": 98.1259,
        "meta_ra_of_asc_node": 335.3565,
        "meta_arg_of_pericenter": 78.43,
        "meta_mean_anomaly": 281.8451,
        "meta_ephemeris_type": 0,
        "meta_classification_type": "U",
        "meta_norad_cat_id": 29709,
        "meta_element_set_no": 999,
        "meta_rev_at_epoch": 2324,
        "meta_bstar": 9.3825e-05,
        "meta_mean_motion_dot": 7.57e-06,
        "meta_mean_motion_ddot": 0,
        "tle_line1": "1 29709U 07001A   25345.23125071  .00000757  00000+0  93825-4 0  9994",
        "tle_line2": "2 29709  98.1259 335.3565 0013695  78.4300 281.8451 14.85666361 23245"
      },
      "geometry": {
        "type": "Point",
        "coordinates": [
          177.73323789191352,
          69.24527852582382
        ]
      }
    },
    {
      "type": "Feature",
      "properties": {
        "norad_id": 31113,
        "name": "HAIYANG-1B",
        "group": "resource",
        "lat": -65.74937373257953,
        "lon": 130.8017631398033,
        "alt_km": 804.9802283204681,
        "timestamp": "2025-12-11T10:53:15.541364+00:00",
        "meta_object_name": "HAIYANG-1B",
        "meta_object_id": "2007-010A",
        "meta_epoch": "2025-12-11T04:42:07.449120",
        "meta_mean_motion": 14.30964143,
        "meta_eccentricity": 0.001432,
        "meta_inclination": 98.3313,
        "meta_ra_of_asc_node": 329.5378,
        "meta_arg_of_pericenter": 42.2744,
        "meta_mean_anomaly": 317.9541,
        "meta_ephemeris_type": 0,
        "meta_classification_type": "U",
        "meta_norad_cat_id": 31113,
        "meta_element_set_no": 999,
        "meta_rev_at_epoch": 97374,
        "meta_bstar": 9.2288e-05,
        "meta_mean_motion_dot": 2.01e-06,
        "meta_mean_motion_ddot": 0,
        "tle_line1": "1 31113U 07010A   25345.19591955  .00000201  00000+0  92288-4 0  9995",
        "tle_line2": "2 31113  98.3313 329.5378 0014320  42.2744 317.9541 14.30964143973743"
      },
      "geometry": {
        "type": "Point",
        "coordinates": [
          130.8017631398033,
          -65.74937373257953
        ]
      }
    },
    {
      "type": "Feature",
      "properties": {
        "norad_id": 31598,
        "name": "COSMO-SKYMED 1",
        "group": "resource",
        "lat": 18.17925585231428,
        "lon": 168.23640764845507,
        "alt_km": 580.1580533046636,
        "timestamp": "2025-12-11T10:53:15.541375+00:00",
        "meta_object_name": "COSMO-SKYMED 1",
        "meta_object_id": "2007-023A",
        "meta_epoch": "2025-12-11T04:23:01.137120",
        "meta_mean_motion": 14.95744113,
        "meta_eccentricity": 0.0001094,
        "meta_inclination": 97.8835,
        "meta_ra_of_asc_node": 170.5717,
        "meta_arg_of_pericenter": 86.3493,
        "meta_mean_anomaly": 273.7852,
        "meta_ephemeris_type": 0,
        "meta_classification_type": "U",
        "meta_norad_cat_id": 31598,
        "meta_element_set_no": 999,
        "meta_rev_at_epoch": 167,
        "meta_bstar": 0.00053108,
        "meta_mean_motion_dot": 5.861e-05,
        "meta_mean_motion_ddot": 0,
        "tle_line1": "1 31598U 07023A   25345.18265205  .00005861  00000+0  53108-3 0  9995",
        "tle_line2": "2 31598  97.8835 170.5717 0001094  86.3493 273.7852 14.95744113  1670"
      },
      "geometry": {
        "type": "Point",
        "coordinates": [
          168.23640764845507,
          18.17925585231428
        ]
      }
    },
    {
      "type": "Feature",
      "properties": {
        "norad_id": 31698,
        "name": "TERRASAR-X",
        "group": "resource",
        "lat": -72.19618040929791,
        "lon": 14.88590604683613,
        "alt_km": 516.9556705338919,
        "timestamp": "2025-12-11T10:53:15.541386+00:00",
        "meta_object_name": "TERRASAR-X",
        "meta_object_id": "2007-026A",
        "meta_epoch": "2025-12-10T13:04:49.433376",
        "meta_mean_motion": 15.19151507,
        "meta_eccentricity": 0.0001862,
        "meta_inclination": 97.446,
        "meta_ra_of_asc_node": 349.9579,
        "meta_arg_of_pericenter": 94.9214,
        "meta_mean_anomaly": 265.2234,
        "meta_ephemeris_type": 0,
        "meta_classification_type": "U",
        "meta_norad_cat_id": 31698,
        "meta_element_set_no": 999,
        "meta_rev_at_epoch": 2458,
        "meta_bstar": 9.1186e-05,
        "meta_mean_motion_dot": 1.848e-05,
        "meta_mean_motion_ddot": 0,
        "tle_line1": "1 31698U 07026A   25344.54501659  .00001848  00000+0  91186-4 0  9994",
        "tle_line2": "2 31698  97.4460 349.9579 0001862  94.9214 265.2234 15.19151507 24589"
      },
      "geometry": {
        "type": "Point",
        "coordinates": [
          14.88590604683613,
          -72.19618040929791
        ]
      }
    },
    {
      "type": "Feature",
      "properties": {
        "norad_id": 32060,
        "name": "WORLDVIEW-1 (WV-1)",
        "group": "resource",
        "lat": -79.16340817411671,
        "lon": -119.69067460817612,
        "alt_km": 499.65544006928485,
        "timestamp": "2025-12-11T10:53:15.541398+00:00",
        "meta_object_name": "WORLDVIEW-1 (WV-1)",
        "meta_object_id": "2007-041A",
        "meta_epoch": "2025-12-11T05:00:58.762944",
        "meta_mean_motion": 15.24647376,
        "meta_eccentricity": 7.41e-05,
        "meta_inclination": 97.3835,
        "meta_ra_of_asc_node": 102.7114,
        "meta_arg_of_pericenter": 105.8602,
        "meta_mean_anomaly": 254.2717,
        "meta_ephemeris_type": 0,
        "meta_classification_type": "U",
        "meta_norad_cat_id": 32060,
        "meta_element_set_no": 999,
        "meta_rev_at_epoch": 1424,
        "meta_bstar": 0.00053613,
        "meta_mean_motion_dot": 0.00013179,
        "meta_mean_motion_ddot": 0,
        "tle_line1": "1 32060U 07041A   25345.20901346  .00013179  00000+0  53613-3 0  9998",
        "tle_line2": "2 32060  97.3835 102.7114 0000741 105.8602 254.2717 15.24647376 14242"
      },
      "geometry": {
        "type": "Point",
        "coordinates": [
          -119.69067460817612,
          -79.16340817411671
        ]
      }
    },
    {
      "type": "Feature",
      "properties": {
        "norad_id": 32289,
        "name": "YAOGAN-3",
        "group": "resource",
        "lat": -73.2986143435762,
        "lon": 164.76585406106796,
        "alt_km": 606.5828741690948,
        "timestamp": "2025-12-11T10:53:15.541409+00:00",
        "meta_object_name": "YAOGAN-3",
        "meta_object_id": "2007-055A",
        "meta_epoch": "2025-12-11T04:54:36.112896",
        "meta_mean_motion": 14.89845725,
        "meta_eccentricity": 0.000123,
        "meta_inclination": 97.8365,
        "meta_ra_of_asc_node": 11.8431,
        "meta_arg_of_pericenter": 74.0533,
        "meta_mean_anomaly": 286.082,
        "meta_ephemeris_type": 0,
        "meta_classification_type": "U",
        "meta_norad_cat_id": 32289,
        "meta_element_set_no": 999,
        "meta_rev_at_epoch": 97786,
        "meta_bstar": 0.00046929,
        "meta_mean_motion_dot": 4.454e-05,
        "meta_mean_motion_ddot": 0,
        "tle_line1": "1 32289U 07055A   25345.20458464  .00004454  00000+0  46929-3 0  9992",
        "tle_line2": "2 32289  97.8365  11.8431 0001230  74.0533 286.0820 14.89845725977866"
      },
      "geometry": {
        "type": "Point",
        "coordinates": [
          164.76585406106796,
          -73.2986143435762
        ]
      }
    }
  ]
}